{
    "links": {
        "self": "http://www.neowsapp.com/rest/v1/neo/54050992?api_key=iIulBulltgU6a56xZRHN4H3l9WmuAYTsLGpBGhQ2"
    },
    "id": "54050992",
    "neo_reference_id": "54050992",
    "name": "(2020 PF1)",
    "designation": "2020 PF1",
    "nasa_jpl_url": "http://ssd.jpl.nasa.gov/sbdb.cgi?sstr=54050992",
    "absolute_magnitude_h": 25.299,
    "estimated_diameter": {
        "kilometers": {
            "estimated_diameter_min": 0.0231608757,
            "estimated_diameter_max": 0.0517892926
        },
        "meters": {
            "estimated_diameter_min": 23.1608757429,
            "estimated_diameter_max": 51.7892925796
        },
        "miles": {
            "estimated_diameter_min": 0.0143914965,
            "estimated_diameter_max": 0.0321803645
        },
        "feet": {
            "estimated_diameter_min": 75.9871275724,
            "estimated_diameter_max": 169.9123826669
        }
    },
    "is_potentially_hazardous_asteroid": false,
    "close_approach_data": [
        {
            "close_approach_date": "2013-07-29",
            "close_approach_date_full": "2013-Jul-29 23:50",
            "epoch_date_close_approach": 1375141800000,
            "relative_velocity": {
                "kilometers_per_second": "19.2958653379",
                "kilometers_per_hour": "69465.1152164782",
                "miles_per_hour": "43162.9211743722"
            },
            "miss_distance": {
                "astronomical": "0.495140687",
                "lunar": "192.609727243",
                "kilometers": "74071992.12553669",
                "miles": "46026201.643478722"
            },
            "orbiting_body": "Earth"
        },
        {
            "close_approach_date": "2020-09-07",
            "close_approach_date_full": "2020-Sep-07 17:46",
            "epoch_date_close_approach": 1599500760000,
            "relative_velocity": {
                "kilometers_per_second": "6.3386403483",
                "kilometers_per_hour": "22819.1052538022",
                "miles_per_hour": "14178.904595064"
            },
            "miss_distance": {
                "astronomical": "0.0825945032",
                "lunar": "32.1292617448",
                "kilometers": "12355961.752428184",
                "miles": "7677638.6161255792"
            },
            "orbiting_body": "Earth"
        },
        {
            "close_approach_date": "2027-10-25",
            "close_approach_date_full": "2027-Oct-25 18:17",
            "epoch_date_close_approach": 1824488220000,
            "relative_velocity": {
                "kilometers_per_second": "15.3663268978",
                "kilometers_per_hour": "55318.776832071",
                "miles_per_hour": "34372.9366376832"
            },
            "miss_distance": {
                "astronomical": "0.3557080785",
                "lunar": "138.3704425365",
                "kilometers": "53213170.885392795",
                "miles": "33065131.137678771"
            },
            "orbiting_body": "Earth"
        },
        {
            "close_approach_date": "2112-08-05",
            "close_approach_date_full": "2112-Aug-05 13:18",
            "epoch_date_close_approach": 4499846280000,
            "relative_velocity": {
                "kilometers_per_second": "16.7918820251",
                "kilometers_per_hour": "60450.7752904921",
                "miles_per_hour": "37561.7609020283"
            },
            "miss_distance": {
                "astronomical": "0.3979492536",
                "lunar": "154.8022596504",
                "kilometers": "59532360.706649832",
                "miles": "36991693.6154864016"
            },
            "orbiting_body": "Earth"
        }
    ],
    "orbital_data": {
        "orbit_id": "8",
        "orbit_determination_date": "2020-10-02 06:43:59",
        "first_observation_date": "2020-08-10",
        "last_observation_date": "2020-09-25",
        "data_arc_in_days": 46,
        "observations_used": 34,
        "orbit_uncertainty": "7",
        "minimum_orbit_intersection": ".075522",
        "jupiter_tisserand_invariant": "3.370",
        "epoch_osculation": "2459000.5",
        "eccentricity": ".5347210005420057",
        "semi_major_axis": "2.320981633073934",
        "inclination": "1.847938940799731",
        "ascending_node_longitude": "346.286293008702",
        "orbital_period": "1291.534412921411",
        "perihelion_distance": "1.079904011997022",
        "perihelion_argument": "9.170965152211366",
        "aphelion_distance": "3.562059254150846",
        "perihelion_time": "2459108.045689271061",
        "mean_anomaly": "330.0229062809047",
        "mean_motion": ".2787382174244132",
        "equinox": "J2000",
        "orbit_class": {
            "orbit_class_type": "AMO",
            "orbit_class_description": "Near-Earth asteroid orbits similar to that of 1221 Amor",
            "orbit_class_range": "1.017 AU < q (perihelion) < 1.3 AU"
        }
    },
    "is_sentry_object": false
}